{
    "links": {
        "self": "http://www.neowsapp.com/rest/v1/neo/3545509?api_key=iIulBulltgU6a56xZRHN4H3l9WmuAYTsLGpBGhQ2"
    },
    "id": "3545509",
    "neo_reference_id": "3545509",
    "name": "(2010 RW11)",
    "designation": "2010 RW11",
    "nasa_jpl_url": "http://ssd.jpl.nasa.gov/sbdb.cgi?sstr=3545509",
    "absolute_magnitude_h": 24.6,
    "estimated_diameter": {
        "kilometers": {
            "estimated_diameter_min": 0.0319561887,
            "estimated_diameter_max": 0.0714562102
        },
        "meters": {
            "estimated_diameter_min": 31.9561886721,
            "estimated_diameter_max": 71.4562101727
        },
        "miles": {
            "estimated_diameter_min": 0.0198566489,
            "estimated_diameter_max": 0.0444008168
        },
        "feet": {
            "estimated_diameter_min": 104.8431420431,
            "estimated_diameter_max": 234.436392583
        }
    },
    "is_potentially_hazardous_asteroid": false,
    "close_approach_data": [
        {
            "close_approach_date": "2010-09-06",
            "close_approach_date_full": "2010-Sep-06 03:25",
            "epoch_date_close_approach": 1283743500000,
            "relative_velocity": {
                "kilometers_per_second": "21.0451865747",
                "kilometers_per_hour": "75762.6716688577",
                "miles_per_hour": "47075.9778489077"
            },
            "miss_distance": {
                "astronomical": "0.0911971769",
                "lunar": "35.4757018141",
                "kilometers": "13642903.414253203",
                "miles": "8477307.0836640814"
            },
            "orbiting_body": "Earth"
        }
    ],
    "orbital_data": {
        "orbit_id": "7",
        "orbit_determination_date": "2019-07-16 06:14:06",
        "first_observation_date": "2010-09-03",
        "last_observation_date": "2010-09-04",
        "data_arc_in_days": 1,
        "observations_used": 26,
        "orbit_uncertainty": "9",
        "minimum_orbit_intersection": ".0858601",
        "jupiter_tisserand_invariant": "3.946",
        "epoch_osculation": "2455443.5",
        "eccentricity": ".4090341460208799",
        "semi_major_axis": "1.662949265518704",
        "inclination": "37.62018182522185",
        "ascending_node_longitude": "160.0853514960612",
        "orbital_period": "783.27979940516",
        "perihelion_distance": ".9827462328212112",
        "perihelion_argument": "231.0516761357243",
        "aphelion_distance": "2.343152298216196",
        "perihelion_time": "2455489.455393327748",
        "mean_anomaly": "338.8786310963807",
        "mean_motion": ".4596058780954034",
        "equinox": "J2000",
        "orbit_class": {
            "orbit_class_type": "APO",
            "orbit_class_description": "Near-Earth asteroid orbits which cross the Earth’s orbit similar to that of 1862 Apollo",
            "orbit_class_range": "a (semi-major axis) > 1.0 AU; q (perihelion) < 1.017 AU"
        }
    },
    "is_sentry_object": false
}